IRIDIUM 106             
1 41917U 17003A   25287.71960951  .00000393  00000+0  13330-3 0  9992
2 41917  86.4039 191.0822 0002134  69.8974 290.2451 14.34218717458020
IRIDIUM 103             
1 41918U 17003B   25287.00923867  .00000358  00000+0  12068-3 0  9998
2 41918  86.4037 191.2791 0002607  81.9281 278.2211 14.34220795457946
IRIDIUM 109             
1 41919U 17003C   25287.43418906  .00000343  00000+0  11530-3 0  9996
2 41919  86.4040 191.1572 0002361  83.9338 276.2127 14.34216478457979
IRIDIUM 102             
1 41920U 17003D   25287.47224604  .00000397  00000+0  13453-3 0  9997
2 41920  86.4038 191.0703 0002123  85.4926 274.6512 14.34218598458065
IRIDIUM 105             
1 41921U 17003E   25287.37324689  .00000373  00000+0  12601-3 0  9999
2 41921  86.4014 159.6252 0002282  84.1831 275.9625 14.34230236459902
IRIDIUM 104             
1 41922U 17003F   25287.69423871  .00000449  00000+0  15324-3 0  9997
2 41922  86.4036 191.0167 0002469  89.2598 270.8881 14.34213485458088
IRIDIUM 114             
1 41923U 17003G   25287.49127594  .00000084  00000+0  22771-4 0  9999
2 41923  86.4040 191.0853 0002299  82.2107 277.9350 14.34218372458030
IRIDIUM 108             
1 41924U 17003H   25287.93817527  .00000127  00000+0  38345-4 0  9993
2 41924  86.4005 159.2835 0001983  85.5186 274.6237 14.34217431459955
